{
  "type": "FeatureCollection",
  "features": [
    {
      "type": "Feature",
      "properties": {
        "norad_id": 19071,
        "name": "OSCAR 32",
        "group": "nnss",
        "lat": 28.252095660359274,
        "lon": -163.02208810148605,
        "alt_km": 1012.860217961811,
        "timestamp": "2025-12-21T18:54:58.765242+00:00",
        "meta_object_name": "OSCAR 32",
        "meta_object_id": "1988-033B",
        "meta_epoch": "2025-12-21T13:18:58.563936",
        "meta_mean_motion": 13.27955317,
        "meta_eccentricity": 0.01890154,
        "meta_inclination": 90.3209,
        "meta_ra_of_asc_node": 16.7981,
        "meta_arg_of_pericenter": 142.37,
        "meta_mean_anomaly": 334.0683,
        "meta_ephemeris_type": 0,
        "meta_classification_type": "U",
        "meta_norad_cat_id": 19071,
        "meta_element_set_no": 999,
        "meta_rev_at_epoch": 82382,
        "meta_bstar": 0.00014885902,
        "meta_mean_motion_dot": 8.4e-07,
        "meta_mean_motion_ddot": 0,
        "tle_line1": "1 19071U 88033B   25355.55484449  .00000084  00000+0  14886-3 0  9994",
        "tle_line2": "2 19071  90.3209  16.7981 0189015 142.3700 334.0683 13.27955317823829"
      },
      "geometry": {
        "type": "Point",
        "coordinates": [
          -163.02208810148605,
          28.252095660359274
        ]
      }
    },
    {
      "type": "Feature",
      "properties": {
        "norad_id": 19223,
        "name": "NOVA 2",
        "group": "nnss",
        "lat": -5.311220665743576,
        "lon": -101.73751336725049,
        "alt_km": 1199.0433331666636,
        "timestamp": "2025-12-21T18:54:58.765252+00:00",
        "meta_object_name": "NOVA 2",
        "meta_object_id": "1988-052A",
        "meta_epoch": "2025-12-21T12:35:31.602912",
        "meta_mean_motion": 13.22936749,
        "meta_eccentricity": 0.00298511,
        "meta_inclination": 89.9869,
        "meta_ra_of_asc_node": 78.2616,
        "meta_arg_of_pericenter": 352.6219,
        "meta_mean_anomaly": 18.401,
        "meta_ephemeris_type": 0,
        "meta_classification_type": "U",
        "meta_norad_cat_id": 19223,
        "meta_element_set_no": 999,
        "meta_rev_at_epoch": 81064,
        "meta_bstar": 0.00012002001,
        "meta_mean_motion_dot": 5.9e-07,
        "meta_mean_motion_ddot": 0,
        "tle_line1": "1 19223U 88052A   25355.52467133  .00000059  00000+0  12002-3 0  9992",
        "tle_line2": "2 19223  89.9869  78.2616 0029851 352.6219  18.4010 13.22936749810640"
      },
      "geometry": {
        "type": "Point",
        "coordinates": [
          -101.73751336725049,
          -5.311220665743576
        ]
      }
    },
    {
      "type": "Feature",
      "properties": {
        "norad_id": 19419,
        "name": "OSCAR 25",
        "group": "nnss",
        "lat": -1.3536573392462015,
        "lon": -159.7271282299065,
        "alt_km": 1046.746796132832,
        "timestamp": "2025-12-21T18:54:58.765263+00:00",
        "meta_object_name": "OSCAR 25",
        "meta_object_id": "1988-074A",
        "meta_epoch": "2025-12-21T13:25:00.075360",
        "meta_mean_motion": 13.42624977,
        "meta_eccentricity": 0.00949397,
        "meta_inclination": 90.0338,
        "meta_ra_of_asc_node": 20.2729,
        "meta_arg_of_pericenter": 220.3142,
        "meta_mean_anomaly": 294.6582,
        "meta_ephemeris_type": 0,
        "meta_classification_type": "U",
        "meta_norad_cat_id": 19419,
        "meta_element_set_no": 999,
        "meta_rev_at_epoch": 82758,
        "meta_bstar": 0.00015317013,
        "meta_mean_motion_dot": 9.8e-07,
        "meta_mean_motion_ddot": 0,
        "tle_line1": "1 19419U 88074A   25355.55902865  .00000098  00000+0  15317-3 0  9997",
        "tle_line2": "2 19419  90.0338  20.2729 0094939 220.3142 294.6582 13.42624977827580"
      },
      "geometry": {
        "type": "Point",
        "coordinates": [
          -159.7271282299065,
          -1.3536573392462015
        ]
      }
    },
    {
      "type": "Feature",
      "properties": {
        "norad_id": 19420,
        "name": "OSCAR 31",
        "group": "nnss",
        "lat": 63.834857523104716,
        "lon": 20.55291386586001,
        "alt_km": 1153.745367385587,
        "timestamp": "2025-12-21T18:54:58.765273+00:00",
        "meta_object_name": "OSCAR 31",
        "meta_object_id": "1988-074B",
        "meta_epoch": "2025-12-21T12:02:25.654848",
        "meta_mean_motion": 13.42586133,
        "meta_eccentricity": 0.00933082,
        "meta_inclination": 90.0354,
        "meta_ra_of_asc_node": 20.624,
        "meta_arg_of_pericenter": 214.619,
        "meta_mean_anomaly": 265.9026,
        "meta_ephemeris_type": 0,
        "meta_classification_type": "U",
        "meta_norad_cat_id": 19420,
        "meta_element_set_no": 999,
        "meta_rev_at_epoch": 82768,
        "meta_bstar": 0.00014157438,
        "meta_mean_motion_dot": 9.1e-07,
        "meta_mean_motion_ddot": 0,
        "tle_line1": "1 19420U 88074B   25355.50168582  .00000091  00000+0  14157-3 0  9998",
        "tle_line2": "2 19420  90.0354  20.6240 0093308 214.6190 265.9026 13.42586133827686"
      },
      "geometry": {
        "type": "Point",
        "coordinates": [
          20.55291386586001,
          63.834857523104716
        ]
      }
    }
  ]
}